start=new Date('2021-12-15T00:00:00.000Z').valueOf();
sats=[{"OBJECT_TYPE":"PAYLOAD","SEMIMAJOR_AXIS":"6925.356","CLASSIFICATION_TYPE":"U","EPHEMERIS_TYPE":"0","MEAN_ELEMENT_THEORY":"SGP4","REF_FRAME":"TEME","APOAPSIS":"549.053","MEAN_MOTION_DDOT":"0.0000000000000","ELEMENT_SET_NO":"999","SITE":"AFETR","TLE_LINE2":"2 48103  53.0522 252.8458 0002646  62.1079 298.0178 15.06397671 39644","LAUNCH_DATE":"2021-04-07","RCS_SIZE":"MEDIUM","BSTAR":"-0.00000251030000","ARG_OF_PERICENTER":"62.1079","OBJECT_NAME":"STARLINK-2438","PERIAPSIS":"545.388","MEAN_MOTION_DOT":"-0.00000319","TLE_LINE1":"1 48103U 21027M   21348.47322580 -.00000319  00000-0 -25103-5 0  9998","OBJECT_ID":"2021-027M","MEAN_MOTION":"15.06397671","RA_OF_ASC_NODE":"252.8458","EPOCH":"2021-12-14T11:21:26.709120","COUNTRY_CODE":"US","TIME_SYSTEM":"UTC","INCLINATION":"53.0522","PERIOD":"95.592","CENTER_NAME":"EARTH","GP_ID":"191695188","FILE":"3240057","MEAN_ANOMALY":"298.0178","DECAY_DATE":null,"REV_AT_EPOCH":"3964","NORAD_CAT_ID":"48103","ECCENTRICITY":"0.00026460"},{"MEAN_MOTION":"15.06397288","OBJECT_ID":"2021-027N","RA_OF_ASC_NODE":"257.8057","TLE_LINE1":"1 48104U 21027N   21348.48566236  .00001654  00000-0  12995-3 0  9992","PERIOD":"95.592","INCLINATION":"53.0564","TIME_SYSTEM":"UTC","COUNTRY_CODE":"US","EPOCH":"2021-12-14T11:39:21.227904","MEAN_ANOMALY":"297.7534","FILE":"3240057","DECAY_DATE":null,"GP_ID":"191695938","CENTER_NAME":"EARTH","NORAD_CAT_ID":"48104","REV_AT_EPOCH":"3958","ECCENTRICITY":"0.00025260","CLASSIFICATION_TYPE":"U","SEMIMAJOR_AXIS":"6925.357","EPHEMERIS_TYPE":"0","OBJECT_TYPE":"PAYLOAD","MEAN_MOTION_DDOT":"0.0000000000000","SITE":"AFETR","TLE_LINE2":"2 48104  53.0564 257.8057 0002526  62.3711 297.7534 15.06397288 39582","ELEMENT_SET_NO":"999","MEAN_ELEMENT_THEORY":"SGP4","REF_FRAME":"TEME","APOAPSIS":"548.971","LAUNCH_DATE":"2021-04-07","OBJECT_NAME":"STARLINK-2439","ARG_OF_PERICENTER":"62.3711","MEAN_MOTION_DOT":"0.00001654","PERIAPSIS":"545.473","BSTAR":"0.00012995000000","RCS_SIZE":"LARGE"},{"ECCENTRICITY":"0.00025160","REV_AT_EPOCH":"4036","NORAD_CAT_ID":"48105","CENTER_NAME":"EARTH","GP_ID":"191694187","DECAY_DATE":null,"FILE":"3240057","MEAN_ANOMALY":"285.0613","COUNTRY_CODE":"US","EPOCH":"2021-12-14T14:12:37.937664","TIME_SYSTEM":"UTC","PERIOD":"95.593","INCLINATION":"53.0554","TLE_LINE1":"1 48105U 21027P   21348.59210576 -.00001234  00000-0 -63962-4 0  9995","OBJECT_ID":"2021-027P","MEAN_MOTION":"15.06390502","RA_OF_ASC_NODE":"202.3042","RCS_SIZE":"LARGE","BSTAR":"-0.00006396200000","MEAN_MOTION_DOT":"-0.00001234","PERIAPSIS":"545.500","ARG_OF_PERICENTER":"75.0655","OBJECT_NAME":"STARLINK-2440","LAUNCH_DATE":"2021-04-07","APOAPSIS":"548.985","MEAN_ELEMENT_THEORY":"SGP4","REF_FRAME":"TEME","ELEMENT_SET_NO":"999","SITE":"AFETR","TLE_LINE2":"2 48105  53.0554 202.3042 0002516  75.0655 285.0613 15.06390502 40366","MEAN_MOTION_DDOT":"0.0000000000000","OBJECT_TYPE":"PAYLOAD","SEMIMAJOR_AXIS":"6925.378","CLASSIFICATION_TYPE":"U","EPHEMERIS_TYPE":"0"},{"MEAN_ANOMALY":"295.9939","FILE":"3240057","DECAY_DATE":null,"CENTER_NAME":"EARTH","GP_ID":"191694437","NORAD_CAT_ID":"48106","REV_AT_EPOCH":"3966","ECCENTRICITY":"0.00026020","OBJECT_ID":"2021-027Q","MEAN_MOTION":"15.06395654","RA_OF_ASC_NODE":"252.3870","TLE_LINE1":"1 48106U 21027Q   21348.57548321  .00001198  00000-0  99378-4 0  9993","INCLINATION":"53.0550","PERIOD":"95.592","TIME_SYSTEM":"UTC","COUNTRY_CODE":"US","EPOCH":"2021-12-14T13:48:41.749344","LAUNCH_DATE":"2021-04-07","OBJECT_NAME":"STARLINK-2442","ARG_OF_PERICENTER":"64.1318","MEAN_MOTION_DOT":"0.00001198","PERIAPSIS":"545.425","BSTAR":"0.00009937800000","RCS_SIZE":"LARGE","SEMIMAJOR_AXIS":"6925.362","EPHEMERIS_TYPE":"0","CLASSIFICATION_TYPE":"U","OBJECT_TYPE":"PAYLOAD","MEAN_MOTION_DDOT":"0.0000000000000","TLE_LINE2":"2 48106  53.0550 252.3870 0002602  64.1318 295.9939 15.06395654 39663","SITE":"AFETR","ELEMENT_SET_NO":"999","MEAN_ELEMENT_THEORY":"SGP4","REF_FRAME":"TEME","APOAPSIS":"549.029"},{"FILE":"3240057","MEAN_ANOMALY":"291.3413","DECAY_DATE":null,"CENTER_NAME":"EARTH","GP_ID":"191695688","REV_AT_EPOCH":"3964","NORAD_CAT_ID":"48107","ECCENTRICITY":"0.00024030","MEAN_MOTION":"15.06395931","OBJECT_ID":"2021-027R","RA_OF_ASC_NODE":"252.9111","TLE_LINE1":"1 48107U 21027R   21348.45848640 -.00000512  00000-0 -15465-4 0  9994","PERIOD":"95.592","INCLINATION":"53.0550","EPOCH":"2021-12-14T11:00:13.224960","COUNTRY_CODE":"US","TIME_SYSTEM":"UTC","LAUNCH_DATE":"2021-04-07","ARG_OF_PERICENTER":"68.7832","OBJECT_NAME":"STARLINK-2443","PERIAPSIS":"545.562","MEAN_MOTION_DOT":"-0.00000512","RCS_SIZE":"LARGE","BSTAR":"-0.00001546500000","CLASSIFICATION_TYPE":"U","SEMIMAJOR_AXIS":"6925.361","EPHEMERIS_TYPE":"0","OBJECT_TYPE":"PAYLOAD","MEAN_MOTION_DDOT":"0.0000000000000","ELEMENT_SET_NO":"999","TLE_LINE2":"2 48107  53.0550 252.9111 0002403  68.7832 291.3413 15.06395931 39641","SITE":"AFETR","MEAN_ELEMENT_THEORY":"SGP4","REF_FRAME":"TEME","APOAPSIS":"548.890"},{"LAUNCH_DATE":"2021-04-07","MEAN_MOTION_DOT":"0.00001428","PERIAPSIS":"545.574","OBJECT_NAME":"STARLINK-2444","ARG_OF_PERICENTER":"62.0542","BSTAR":"0.00011479000000","RCS_SIZE":"LARGE","SEMIMAJOR_AXIS":"6925.344","CLASSIFICATION_TYPE":"U","EPHEMERIS_TYPE":"0","OBJECT_TYPE":"PAYLOAD","TLE_LINE2":"2 48108  53.0546 262.7493 0002361  62.0542 298.0686 15.06401372 39505","SITE":"AFETR","ELEMENT_SET_NO":"999","MEAN_MOTION_DDOT":"0.0000000000000","APOAPSIS":"548.844","MEAN_ELEMENT_THEORY":"SGP4","REF_FRAME":"TEME","DECAY_DATE":null,"MEAN_ANOMALY":"298.0686","FILE":"3240057","GP_ID":"191695439","CENTER_NAME":"EARTH","ECCENTRICITY":"0.00023610","NORAD_CAT_ID":"48108","REV_AT_EPOCH":"3950","OBJECT_ID":"2021-027S","MEAN_MOTION":"15.06401372","RA_OF_ASC_NODE":"262.7493","TLE_LINE1":"1 48108U 21027S   21348.49810699  .00001428  00000-0  11479-3 0  9997","PERIOD":"95.592","INCLINATION":"53.0546","TIME_SYSTEM":"UTC","COUNTRY_CODE":"US","EPOCH":"2021-12-14T11:57:16.443936"},{"CENTER_NAME":"EARTH","GP_ID":"191698468","DECAY_DATE":null,"FILE":"3240124","MEAN_ANOMALY":"295.8327","ECCENTRICITY":"0.00023040","REV_AT_EPOCH":"3897","NORAD_CAT_ID":"48109","TLE_LINE1":"1 48109U 21027T   21348.51193008 -.00000165  00000-0  78531-5 0  9991","RA_OF_ASC_NODE":"272.6732","MEAN_MOTION":"15.06394521","OBJECT_ID":"2021-027T","COUNTRY_CODE":"US","EPOCH":"2021-12-14T12:17:10.758912","TIME_SYSTEM":"UTC","INCLINATION":"53.0559","PERIOD":"95.592","LAUNCH_DATE":"2021-04-07","RCS_SIZE":"LARGE","BSTAR":"0.00000785310000","PERIAPSIS":"545.635","MEAN_MOTION_DOT":"-0.00000165","ARG_OF_PERICENTER":"64.2899","OBJECT_NAME":"STARLINK-2445","OBJECT_TYPE":"PAYLOAD","SEMIMAJOR_AXIS":"6925.365","CLASSIFICATION_TYPE":"U","EPHEMERIS_TYPE":"0","APOAPSIS":"548.826","MEAN_ELEMENT_THEORY":"SGP4","REF_FRAME":"TEME","ELEMENT_SET_NO":"999","SITE":"AFETR","TLE_LINE2":"2 48109  53.0559 272.6732 0002304  64.2899 295.8327 15.06394521 38976","MEAN_MOTION_DDOT":"0.0000000000000"},{"GP_ID":"191698975","CENTER_NAME":"EARTH","MEAN_ANOMALY":"298.0241","FILE":"3240124","DECAY_DATE":null,"NORAD_CAT_ID":"48110","REV_AT_EPOCH":"3914","ECCENTRICITY":"0.00026230","TLE_LINE1":"1 48110U 21027U   21348.68608384  .00001569  00000-0  12421-3 0  9991","OBJECT_ID":"2021-027U","MEAN_MOTION":"15.06400231","RA_OF_ASC_NODE":"261.8930","TIME_SYSTEM":"UTC","EPOCH":"2021-12-14T16:27:57.643776","COUNTRY_CODE":"US","INCLINATION":"53.0555","PERIOD":"95.592","LAUNCH_DATE":"2021-04-07","BSTAR":"0.00012421000000","RCS_SIZE":"LARGE","OBJECT_NAME":"STARLINK-2447","ARG_OF_PERICENTER":"62.1013","MEAN_MOTION_DOT":"0.00001569","PERIAPSIS":"545.396","OBJECT_TYPE":"PAYLOAD","SEMIMAJOR_AXIS":"6925.348","EPHEMERIS_TYPE":"0","CLASSIFICATION_TYPE":"U","REF_FRAME":"TEME","MEAN_ELEMENT_THEORY":"SGP4","APOAPSIS":"549.029","MEAN_MOTION_DDOT":"0.0000000000000","TLE_LINE2":"2 48110  53.0555 261.8930 0002623  62.1013 298.0241 15.06400231 39149","SITE":"AFETR","ELEMENT_SET_NO":"999"},{"BSTAR":"-0.00002131400000","RCS_SIZE":"LARGE","OBJECT_NAME":"STARLINK-2448","ARG_OF_PERICENTER":"66.8506","PERIAPSIS":"545.572","MEAN_MOTION_DOT":"-0.00000599","LAUNCH_DATE":"2021-04-07","MEAN_ELEMENT_THEORY":"SGP4","REF_FRAME":"TEME","APOAPSIS":"548.896","MEAN_MOTION_DDOT":"0.0000000000000","SITE":"AFETR","TLE_LINE2":"2 48111  53.0548 262.8170 0002400  66.8506 293.2735 15.06393336 39513","ELEMENT_SET_NO":"999","OBJECT_TYPE":"PAYLOAD","SEMIMAJOR_AXIS":"6925.369","CLASSIFICATION_TYPE":"U","EPHEMERIS_TYPE":"0","NORAD_CAT_ID":"48111","REV_AT_EPOCH":"3951","ECCENTRICITY":"0.00024000","CENTER_NAME":"EARTH","GP_ID":"191695189","MEAN_ANOMALY":"293.2735","FILE":"3240057","DECAY_DATE":null,"TIME_SYSTEM":"UTC","EPOCH":"2021-12-14T11:34:41.508768","COUNTRY_CODE":"US","INCLINATION":"53.0548","PERIOD":"95.593","TLE_LINE1":"1 48111U 21027V   21348.48242487 -.00000599  00000-0 -21314-4 0  9994","MEAN_MOTION":"15.06393336","RA_OF_ASC_NODE":"262.8170","OBJECT_ID":"2021-027V"},{"ECCENTRICITY":"0.00024530","NORAD_CAT_ID":"48112","REV_AT_EPOCH":"3890","CENTER_NAME":"EARTH","GP_ID":"191698505","DECAY_DATE":null,"MEAN_ANOMALY":"297.3447","FILE":"3240127","TIME_SYSTEM":"UTC","COUNTRY_CODE":"US","EPOCH":"2021-12-14T12:33:44.397792","PERIOD":"95.592","INCLINATION":"53.0543","TLE_LINE1":"1 48112U 21027W   21348.52343053 -.00000413  00000-0 -87897-5 0  9995","OBJECT_ID":"2021-027W","RA_OF_ASC_NODE":"277.6352","MEAN_MOTION":"15.06395251","BSTAR":"-0.00000878970000","RCS_SIZE":"LARGE","PERIAPSIS":"545.529","MEAN_MOTION_DOT":"-0.00000413","OBJECT_NAME":"STARLINK-2449","ARG_OF_PERICENTER":"62.7792","LAUNCH_DATE":"2021-04-07","APOAPSIS":"548.927","MEAN_ELEMENT_THEORY":"SGP4","REF_FRAME":"TEME","TLE_LINE2":"2 48112  53.0543 277.6352 0002453  62.7792 297.3447 15.06395251 38900","SITE":"AFETR","ELEMENT_SET_NO":"999","MEAN_MOTION_DDOT":"0.0000000000000","OBJECT_TYPE":"PAYLOAD","SEMIMAJOR_AXIS":"6925.363","CLASSIFICATION_TYPE":"U","EPHEMERIS_TYPE":"0"}];
